[{"OBJECT_NAME":"STARLINK-1559","OBJECT_ID":"2020-055BC","EPOCH":"2026-03-09T05:36:23.522976","MEAN_MOTION":15.29461733,"ECCENTRICITY":0.0004229,"INCLINATION":53.0254,"RA_OF_ASC_NODE":76.0659,"ARG_OF_PERICENTER":33.971,"MEAN_ANOMALY":326.1559,"EPHEMERIS_TYPE":0,"CLASSIFICATION_TYPE":"U","NORAD_CAT_ID":46077,"ELEMENT_SET_NO":999,"REV_AT_EPOCH":30951,"BSTAR":0.0014778793,"MEAN_MOTION_DOT":0.00042685,"MEAN_MOTION_DDOT":0},{"OBJECT_NAME":"STARLINK-35033","OBJECT_ID":"2025-195L","EPOCH":"2026-03-09T17:26:14.081568","MEAN_MOTION":15.30198377,"ECCENTRICITY":0.00010424,"INCLINATION":53.1592,"RA_OF_ASC_NODE":257.6971,"ARG_OF_PERICENTER":113.8761,"MEAN_ANOMALY":246.2349,"EPHEMERIS_TYPE":0,"CLASSIFICATION_TYPE":"U","NORAD_CAT_ID":65468,"ELEMENT_SET_NO":999,"REV_AT_EPOCH":3000,"BSTAR":0.00045136319,"MEAN_MOTION_DOT":0.00013032,"MEAN_MOTION_DDOT":0}]
